[{"OBJECT_NAME":"AL MUNTHER","OBJECT_ID":"2025-052AG","EPOCH":"2026-03-09T15:29:23.207136","MEAN_MOTION":15.28381521,"ECCENTRICITY":0.0008027,"INCLINATION":97.4001,"RA_OF_ASC_NODE":323.9152,"ARG_OF_PERICENTER":130.7043,"MEAN_ANOMALY":229.4895,"EPHEMERIS_TYPE":0,"CLASSIFICATION_TYPE":"U","NORAD_CAT_ID":63240,"ELEMENT_SET_NO":999,"REV_AT_EPOCH":5479,"BSTAR":0.00065015,"MEAN_MOTION_DOT":0.00017933,"MEAN_MOTION_DDOT":0},{"OBJECT_NAME":"STARLINK-35451","OBJECT_ID":"2025-262P","EPOCH":"2026-03-08T23:48:13.754304","MEAN_MOTION":15.27592848,"ECCENTRICITY":0.00022172,"INCLINATION":42.9992,"RA_OF_ASC_NODE":299.7605,"ARG_OF_PERICENTER":233.6066,"MEAN_ANOMALY":126.4581,"EPHEMERIS_TYPE":0,"CLASSIFICATION_TYPE":"U","NORAD_CAT_ID":66469,"ELEMENT_SET_NO":999,"REV_AT_EPOCH":1880,"BSTAR":0.0010013047,"MEAN_MOTION_DOT":0.00027406,"MEAN_MOTION_DDOT":0}]
